[
    {
        "OBJECT_NAME": "IRIDIUM 123",
        "OBJECT_ID": "2017-039B",
        "EPOCH": "2025-05-15T16:06:18.902304",
        "MEAN_MOTION": 14.34217917,
        "ECCENTRICITY": 0.0002486,
        "INCLINATION": 86.3985,
        "RA_OF_ASC_NODE": 159.7979,
        "ARG_OF_PERICENTER": 99.2138,
        "MEAN_ANOMALY": 260.9339,
        "EPHEMERIS_TYPE": 0,
        "CLASSIFICATION_TYPE": "U",
        "NORAD_CAT_ID": 42804,
        "ELEMENT_SET_NO": 999,
        "REV_AT_EPOCH": 41297,
        "BSTAR": 4.28e-05,
        "MEAN_MOTION_DOT": 1.4e-06,
        "MEAN_MOTION_DDOT": 0,
        "period": 1.66881505,
        "radius": 7141438.689,
        "altitude": 763.4386892,
        "angle": 144.0054073
    },
    {
        "OBJECT_NAME": "IRIDIUM 120",
        "OBJECT_ID": "2017-039C",
        "EPOCH": "2025-05-16T01:00:15.910848",
        "MEAN_MOTION": 14.34216624,
        "ECCENTRICITY": 0.0002683,
        "INCLINATION": 86.3938,
        "RA_OF_ASC_NODE": 128.0276,
        "ARG_OF_PERICENTER": 89.6367,
        "MEAN_ANOMALY": 270.5136,
        "EPHEMERIS_TYPE": 0,
        "CLASSIFICATION_TYPE": "U",
        "NORAD_CAT_ID": 42805,
        "ELEMENT_SET_NO": 999,
        "REV_AT_EPOCH": 41425,
        "BSTAR": 4.71e-05,
        "MEAN_MOTION_DOT": 1.52e-06,
        "MEAN_MOTION_DDOT": 0,
        "period": 1.668816554,
        "radius": 7141442.981,
        "altitude": 763.4429814,
        "angle": 144.005218
    },
    {
        "OBJECT_NAME": "IRIDIUM 115",
        "OBJECT_ID": "2017-039D",
        "EPOCH": "2025-05-16T01:27:38.081952",
        "MEAN_MOTION": 14.43277651,
        "ECCENTRICITY": 0.0002832,
        "INCLINATION": 86.4476,
        "RA_OF_ASC_NODE": 128.094,
        "ARG_OF_PERICENTER": 103.2448,
        "MEAN_ANOMALY": 256.9069,
        "EPHEMERIS_TYPE": 0,
        "CLASSIFICATION_TYPE": "U",
        "NORAD_CAT_ID": 42806,
        "ELEMENT_SET_NO": 999,
        "REV_AT_EPOCH": 41698,
        "BSTAR": 4.58e-05,
        "MEAN_MOTION_DOT": 1.74e-06,
        "MEAN_MOTION_DDOT": 0,
        "period": 1.658339574,
        "radius": 7111521.871,
        "altitude": 733.5218708,
        "angle": 145.3298541
    },
    {
        "OBJECT_NAME": "IRIDIUM 118",
        "OBJECT_ID": "2017-039E",
        "EPOCH": "2025-05-15T15:11:30.855264",
        "MEAN_MOTION": 14.34217789,
        "ECCENTRICITY": 0.0002237,
        "INCLINATION": 86.3984,
        "RA_OF_ASC_NODE": 159.8136,
        "ARG_OF_PERICENTER": 90.5596,
        "MEAN_ANOMALY": 269.5856,
        "EPHEMERIS_TYPE": 0,
        "CLASSIFICATION_TYPE": "U",
        "NORAD_CAT_ID": 42807,
        "ELEMENT_SET_NO": 999,
        "REV_AT_EPOCH": 41297,
        "BSTAR": 6.32e-05,
        "MEAN_MOTION_DOT": 1.97e-06,
        "MEAN_MOTION_DDOT": 0,
        "period": 1.668815199,
        "radius": 7141439.114,
        "altitude": 763.4391141,
        "angle": 144.0053886
    },
    {
        "OBJECT_NAME": "IRIDIUM 117",
        "OBJECT_ID": "2017-039F",
        "EPOCH": "2025-05-15T13:58:26.872608",
        "MEAN_MOTION": 14.34217685,
        "ECCENTRICITY": 0.0002308,
        "INCLINATION": 86.3984,
        "RA_OF_ASC_NODE": 159.7963,
        "ARG_OF_PERICENTER": 99.6992,
        "MEAN_ANOMALY": 260.4464,
        "EPHEMERIS_TYPE": 0,
        "CLASSIFICATION_TYPE": "U",
        "NORAD_CAT_ID": 42808,
        "ELEMENT_SET_NO": 999,
        "REV_AT_EPOCH": 41298,
        "BSTAR": 4.5e-05,
        "MEAN_MOTION_DOT": 1.46e-06,
        "MEAN_MOTION_DDOT": 0,
        "period": 1.66881532,
        "radius": 7141439.459,
        "altitude": 763.4394594,
        "angle": 144.0053734
    },
    {
        "OBJECT_NAME": "IRIDIUM 126",
        "OBJECT_ID": "2017-039G",
        "EPOCH": "2025-05-15T16:15:26.872704",
        "MEAN_MOTION": 14.34217466,
        "ECCENTRICITY": 0.0002144,
        "INCLINATION": 86.3986,
        "RA_OF_ASC_NODE": 159.8011,
        "ARG_OF_PERICENTER": 96.9855,
        "MEAN_ANOMALY": 263.1585,
        "EPHEMERIS_TYPE": 0,
        "CLASSIFICATION_TYPE": "U",
        "NORAD_CAT_ID": 42809,
        "ELEMENT_SET_NO": 999,
        "REV_AT_EPOCH": 41298,
        "BSTAR": 5.5e-05,
        "MEAN_MOTION_DOT": 1.74e-06,
        "MEAN_MOTION_DDOT": 0,
        "period": 1.668815574,
        "radius": 7141440.186,
        "altitude": 763.4401863,
        "angle": 144.0053413
    },
    {
        "OBJECT_NAME": "IRIDIUM 124",
        "OBJECT_ID": "2017-039H",
        "EPOCH": "2025-05-15T08:53:48.395328",
        "MEAN_MOTION": 14.43281179,
        "ECCENTRICITY": 0.0002662,
        "INCLINATION": 86.4465,
        "RA_OF_ASC_NODE": 96.6905,
        "ARG_OF_PERICENTER": 88.9697,
        "MEAN_ANOMALY": 271.1809,
        "EPHEMERIS_TYPE": 0,
        "CLASSIFICATION_TYPE": "U",
        "NORAD_CAT_ID": 42810,
        "ELEMENT_SET_NO": 999,
        "REV_AT_EPOCH": 41773,
        "BSTAR": 6.66e-05,
        "MEAN_MOTION_DOT": 2.44e-06,
        "MEAN_MOTION_DDOT": 0,
        "period": 1.65833552,
        "radius": 7111510.282,
        "altitude": 733.5102818,
        "angle": 145.3303691
    },
    {
        "OBJECT_NAME": "IRIDIUM 128",
        "OBJECT_ID": "2017-039J",
        "EPOCH": "2025-05-15T12:41:10.830048",
        "MEAN_MOTION": 14.34217696,
        "ECCENTRICITY": 0.0002638,
        "INCLINATION": 86.402,
        "RA_OF_ASC_NODE": 191.3252,
        "ARG_OF_PERICENTER": 95.8891,
        "MEAN_ANOMALY": 264.2606,
        "EPHEMERIS_TYPE": 0,
        "CLASSIFICATION_TYPE": "U",
        "NORAD_CAT_ID": 42811,
        "ELEMENT_SET_NO": 999,
        "REV_AT_EPOCH": 41298,
        "BSTAR": -7.65e-06,
        "MEAN_MOTION_DOT": -2e-08,
        "MEAN_MOTION_DDOT": 0,
        "period": 1.668815307,
        "radius": 7141439.423,
        "altitude": 763.4394228,
        "angle": 144.005375
    },
    {
        "OBJECT_NAME": "IRIDIUM 121",
        "OBJECT_ID": "2017-039K",
        "EPOCH": "2025-05-15T13:21:54.745632",
        "MEAN_MOTION": 14.34217712,
        "ECCENTRICITY": 0.0002464,
        "INCLINATION": 86.3986,
        "RA_OF_ASC_NODE": 159.8765,
        "ARG_OF_PERICENTER": 89.5298,
        "MEAN_ANOMALY": 270.618,
        "EPHEMERIS_TYPE": 0,
        "CLASSIFICATION_TYPE": "U",
        "NORAD_CAT_ID": 42812,
        "ELEMENT_SET_NO": 999,
        "REV_AT_EPOCH": 41283,
        "BSTAR": 6.61e-05,
        "MEAN_MOTION_DOT": 2.05e-06,
        "MEAN_MOTION_DDOT": 0,
        "period": 1.668815288,
        "radius": 7141439.37,
        "altitude": 763.4393697,
        "angle": 144.0053773
    },
    {
        "OBJECT_NAME": "IRIDIUM 133",
        "OBJECT_ID": "2017-061A",
        "EPOCH": "2025-05-16T02:50:34.758240",
        "MEAN_MOTION": 14.34217767,
        "ECCENTRICITY": 0.0002243,
        "INCLINATION": 86.4022,
        "RA_OF_ASC_NODE": 191.1869,
        "ARG_OF_PERICENTER": 96.1904,
        "MEAN_ANOMALY": 263.9548,
        "EPHEMERIS_TYPE": 0,
        "CLASSIFICATION_TYPE": "U",
        "NORAD_CAT_ID": 42955,
        "ELEMENT_SET_NO": 999,
        "REV_AT_EPOCH": 39786,
        "BSTAR": 1.8e-06,
        "MEAN_MOTION_DOT": 2.5e-07,
        "MEAN_MOTION_DDOT": 0,
        "period": 1.668815224,
        "radius": 7141439.187,
        "altitude": 763.4391872,
        "angle": 144.0053854
    },
    {
        "OBJECT_NAME": "IRIDIUM 100",
        "OBJECT_ID": "2017-061B",
        "EPOCH": "2025-05-16T02:41:26.767104",
        "MEAN_MOTION": 14.34217999,
        "ECCENTRICITY": 0.0002434,
        "INCLINATION": 86.4016,
        "RA_OF_ASC_NODE": 191.1177,
        "ARG_OF_PERICENTER": 98.6994,
        "MEAN_ANOMALY": 261.4478,
        "EPHEMERIS_TYPE": 0,
        "CLASSIFICATION_TYPE": "U",
        "NORAD_CAT_ID": 42956,
        "ELEMENT_SET_NO": 999,
        "REV_AT_EPOCH": 39788,
        "BSTAR": 2.98e-05,
        "MEAN_MOTION_DOT": 1.03e-06,
        "MEAN_MOTION_DDOT": 0,
        "period": 1.668814954,
        "radius": 7141438.417,
        "altitude": 763.438417,
        "angle": 144.0054193
    }
]